ONEWEB-0448             
1 51641U 22012V   22052.83335648  .00018958  00000+0  67273-3 0  9993
2 51641  87.4035 357.8326 0016756 205.6410 221.2816 15.28812595  2968
ONEWEB-0449             
1 51642U 22012W   22052.58334491 -.00004222  00000+0 -15153-3 0  9992
2 51642  87.4023 357.9181 0016777 203.4505 293.3876 15.28931150  2932
ONEWEB-0451             
1 51643U 22012X   22052.58334491 -.00004116  00000+0 -13733-3 0  9997
2 51643  87.4020 357.9040 0016400 199.7222  28.6224 15.31317065  2944
ONEWEB-0452             
1 51644U 22012Y   22052.58334491 -.00004340  00000+0 -14106-3 0  9992
2 51644  87.4042 357.9034 0013027 193.3260  69.0685 15.32200359  2944
ONEWEB-0455             
1 51645U 22012Z   22052.83335648  .00019403  00000+0  69857-3 0  9993
2 51645  87.4027 357.8345 0015192 210.5697 198.7726 15.28362561  2960
ONEWEB-0456             
1 51646U 22012AA  22052.58334491 -.00002943  00000+0 -10139-3 0  9993
2 51646  87.4019 357.9064 0014393 210.4596 343.9187 15.30434591  2938
ONEWEB-0457             
1 51647U 22012AB  22052.58334491 -.00003082  00000+0 -10782-3 0  9993
2 51647  87.4008 357.9104 0013269 202.7560 332.3901 15.29935675  2931
ONEWEB-0458             
1 51648U 22012AC  22052.83335648  .00018779  00000+0  65674-3 0  9994
2 51648  87.4030 357.8283 0015429 196.5180 249.6245 15.29309842  2978
ONEWEB-0461             
1 51649U 22012AD  22052.58334491 -.00002540  00000+0 -87353-4 0  9992
2 51649  87.4025 357.9097 0014887 210.5880 348.3203 15.30556229  2930
ONEWEB-0463             
1 51650U 22012AE  22052.58334491 -.00003666  00000+0 -12202-3 0  9994
2 51650  87.4032 357.9022 0016051 198.2441  34.9800 15.31443906  2948
ONEWEB-0464             
1 51651U 22012AF  22052.58334491 -.00003260  00000+0 -11435-3 0  9992
2 51651  87.4023 357.9114 0013269 200.5808 330.3463 15.29824889  2930
ONEWEB-0468             
1 51652U 22012AG  22052.58334491 -.00004617  00000+0 -16680-3 0  9997
2 51652  87.4006 357.9157 0016415 208.0142 279.4461 15.28692099  2924
ONEWEB-0473             
1 51653U 22012AH  22052.83335648  .00019003  00000+0  65894-3 0  9995
2 51653  87.4041 357.8304 0014531 197.1623 260.6674 15.29599538  2974
ONEWEB-0474             
1 51654U 22012AJ  22052.83335648  .00019796  00000+0  71827-3 0  9998
2 51654  87.4029 357.8376 0014004 211.4352 188.8814 15.28126025  2966
ONEWEB-0475             
1 51655U 22012AK  22052.58334491 -.00003109  00000+0 -10549-3 0  9993
2 51655  87.4045 357.9100 0016149 207.0236   4.4913 15.30881887  2932
